[{"OBJECT_NAME":"ONEWEB-0161","OBJECT_ID":"2021-025M","EPOCH":"2025-11-03T14:34:12.411840","MEAN_MOTION":13.13470966,"ECCENTRICITY":0.000189,"INCLINATION":87.9021,"RA_OF_ASC_NODE":5.0598,"ARG_OF_PERICENTER":93.3051,"MEAN_ANOMALY":266.8295,"EPHEMERIS_TYPE":0,"CLASSIFICATION_TYPE":"U","NORAD_CAT_ID":48053,"ELEMENT_SET_NO":999,"REV_AT_EPOCH":22389,"BSTAR":0.00082354,"MEAN_MOTION_DOT":3.14e-6,"MEAN_MOTION_DDOT":0},{"OBJECT_NAME":"ONEWEB-0158","OBJECT_ID":"2021-025N","EPOCH":"2025-11-02T10:10:15.030048","MEAN_MOTION":13.13471599,"ECCENTRICITY":0.0001887,"INCLINATION":87.9033,"RA_OF_ASC_NODE":5.2765,"ARG_OF_PERICENTER":108.9386,"MEAN_ANOMALY":251.1948,"EPHEMERIS_TYPE":0,"CLASSIFICATION_TYPE":"U","NORAD_CAT_ID":48054,"ELEMENT_SET_NO":999,"REV_AT_EPOCH":22386,"BSTAR":-0.00084186,"MEAN_MOTION_DOT":-2.95e-6,"MEAN_MOTION_DDOT":0},{"OBJECT_NAME":"ONEWEB-0157","OBJECT_ID":"2021-025P","EPOCH":"2025-11-03T14:12:15.926400","MEAN_MOTION":13.13470765,"ECCENTRICITY":0.0001946,"INCLINATION":87.9028,"RA_OF_ASC_NODE":5.0513,"ARG_OF_PERICENTER":81.2121,"MEAN_ANOMALY":278.9229,"EPHEMERIS_TYPE":0,"CLASSIFICATION_TYPE":"U","NORAD_CAT_ID":48055,"ELEMENT_SET_NO":999,"REV_AT_EPOCH":22395,"BSTAR":0.00059576,"MEAN_MOTION_DOT":2.3e-6,"MEAN_MOTION_DDOT":0},{"OBJECT_NAME":"ONEWEB-0162","OBJECT_ID":"2021-025Q","EPOCH":"2025-11-03T13:37:56.637696","MEAN_MOTION":13.13466401,"ECCENTRICITY":0.0001919,"INCLINATION":87.9041,"RA_OF_ASC_NODE":5.0574,"ARG_OF_PERICENTER":90.9764,"MEAN_ANOMALY":269.1585,"EPHEMERIS_TYPE":0,"CLASSIFICATION_TYPE":"U","NORAD_CAT_ID":48056,"ELEMENT_SET_NO":999,"REV_AT_EPOCH":22392,"BSTAR":0.00055379,"MEAN_MOTION_DOT":2.15e-6,"MEAN_MOTION_DDOT":0},{"OBJECT_NAME":"ONEWEB-0155","OBJECT_ID":"2021-025R","EPOCH":"2025-11-02T04:53:22.202016","MEAN_MOTION":13.1346908,"ECCENTRICITY":0.00020306,"INCLINATION":87.9031,"RA_OF_ASC_NODE":5.3335,"ARG_OF_PERICENTER":98.7764,"MEAN_ANOMALY":261.3595,"EPHEMERIS_TYPE":0,"CLASSIFICATION_TYPE":"U","NORAD_CAT_ID":48057,"ELEMENT_SET_NO":999,"REV_AT_EPOCH":22388,"BSTAR":-0.00082084105,"MEAN_MOTION_DOT":-2.87e-6,"MEAN_MOTION_DDOT":0},{"OBJECT_NAME":"ONEWEB-0149","OBJECT_ID":"2021-025S","EPOCH":"2025-11-03T14:19:33.727296","MEAN_MOTION":13.13471855,"ECCENTRICITY":0.0001681,"INCLINATION":87.9027,"RA_OF_ASC_NODE":5.0511,"ARG_OF_PERICENTER":95.1533,"MEAN_ANOMALY":264.9788,"EPHEMERIS_TYPE":0,"CLASSIFICATION_TYPE":"U","NORAD_CAT_ID":48058,"ELEMENT_SET_NO":999,"REV_AT_EPOCH":22387,"BSTAR":6.4417e-5,"MEAN_MOTION_DOT":3.6e-7,"MEAN_MOTION_DDOT":0},{"OBJECT_NAME":"ONEWEB-0148","OBJECT_ID":"2021-025T","EPOCH":"2025-11-02T10:00:30.697344","MEAN_MOTION":13.13469918,"ECCENTRICITY":0.0001568,"INCLINATION":87.9031,"RA_OF_ASC_NODE":5.3077,"ARG_OF_PERICENTER":80.5614,"MEAN_ANOMALY":279.5693,"EPHEMERIS_TYPE":0,"CLASSIFICATION_TYPE":"U","NORAD_CAT_ID":48059,"ELEMENT_SET_NO":999,"REV_AT_EPOCH":22384,"BSTAR":-0.00053156,"MEAN_MOTION_DOT":-1.81e-6,"MEAN_MOTION_DDOT":0},{"OBJECT_NAME":"ONEWEB-0160","OBJECT_ID":"2021-025U","EPOCH":"2025-11-02T10:24:52.083360","MEAN_MOTION":13.13465995,"ECCENTRICITY":0.0001947,"INCLINATION":87.9026,"RA_OF_ASC_NODE":5.3015,"ARG_OF_PERICENTER":122.4438,"MEAN_ANOMALY":237.6879,"EPHEMERIS_TYPE":0,"CLASSIFICATION_TYPE":"U","NORAD_CAT_ID":48060,"ELEMENT_SET_NO":999,"REV_AT_EPOCH":22379,"BSTAR":0.00098993,"MEAN_MOTION_DOT":3.74e-6,"MEAN_MOTION_DDOT":0},{"OBJECT_NAME":"ONEWEB-0163","OBJECT_ID":"2021-025V","EPOCH":"2025-11-02T10:02:56.913792","MEAN_MOTION":13.13469729,"ECCENTRICITY":0.0002063,"INCLINATION":87.9037,"RA_OF_ASC_NODE":5.2879,"ARG_OF_PERICENTER":93.0759,"MEAN_ANOMALY":267.0606,"EPHEMERIS_TYPE":0,"CLASSIFICATION_TYPE":"U","NORAD_CAT_ID":48061,"ELEMENT_SET_NO":999,"REV_AT_EPOCH":22391,"BSTAR":-0.00059201,"MEAN_MOTION_DOT":-2.03e-6,"MEAN_MOTION_DDOT":0},{"OBJECT_NAME":"ONEWEB-0159","OBJECT_ID":"2021-025W","EPOCH":"2025-11-03T15:05:53.255040","MEAN_MOTION":13.13468324,"ECCENTRICITY":0.0001863,"INCLINATION":87.9038,"RA_OF_ASC_NODE":5.031,"ARG_OF_PERICENTER":91.4887,"MEAN_ANOMALY":268.6456,"EPHEMERIS_TYPE":0,"CLASSIFICATION_TYPE":"U","NORAD_CAT_ID":48062,"ELEMENT_SET_NO":999,"REV_AT_EPOCH":22399,"BSTAR":0.00030928,"MEAN_MOTION_DOT":1.26e-6,"MEAN_MOTION_DDOT":0},{"OBJECT_NAME":"ONEWEB-0164","OBJECT_ID":"2021-025X","EPOCH":"2025-11-02T11:13:37.437024","MEAN_MOTION":13.1347244,"ECCENTRICITY":0.0001856,"INCLINATION":87.9031,"RA_OF_ASC_NODE":5.2692,"ARG_OF_PERICENTER":101.7035,"MEAN_ANOMALY":258.4302,"EPHEMERIS_TYPE":0,"CLASSIFICATION_TYPE":"U","NORAD_CAT_ID":48063,"ELEMENT_SET_NO":999,"REV_AT_EPOCH":22382,"BSTAR":0.00099638,"MEAN_MOTION_DOT":3.77e-6,"MEAN_MOTION_DDOT":0},{"OBJECT_NAME":"ONEWEB-0167","OBJECT_ID":"2021-025Y","EPOCH":"2025-11-02T10:04:10.092000","MEAN_MOTION":13.13469885,"ECCENTRICITY":0.0002599,"INCLINATION":87.9025,"RA_OF_ASC_NODE":5.3091,"ARG_OF_PERICENTER":97.9206,"MEAN_ANOMALY":262.2218,"EPHEMERIS_TYPE":0,"CLASSIFICATION_TYPE":"U","NORAD_CAT_ID":48064,"ELEMENT_SET_NO":999,"REV_AT_EPOCH":22380,"BSTAR":-0.00069991,"MEAN_MOTION_DOT":-2.43e-6,"MEAN_MOTION_DDOT":0},{"OBJECT_NAME":"ONEWEB-0166","OBJECT_ID":"2021-025Z","EPOCH":"2025-11-02T10:37:04.389888","MEAN_MOTION":13.13470164,"ECCENTRICITY":0.0001785,"INCLINATION":87.9032,"RA_OF_ASC_NODE":5.2579,"ARG_OF_PERICENTER":93.1351,"MEAN_ANOMALY":266.9983,"EPHEMERIS_TYPE":0,"CLASSIFICATION_TYPE":"U","NORAD_CAT_ID":48065,"ELEMENT_SET_NO":999,"REV_AT_EPOCH":22388,"BSTAR":-7.9186e-5,"MEAN_MOTION_DOT":-1.6e-7,"MEAN_MOTION_DDOT":0},{"OBJECT_NAME":"ONEWEB-0151","OBJECT_ID":"2021-025AA","EPOCH":"2025-11-03T14:04:55.938720","MEAN_MOTION":13.13470088,"ECCENTRICITY":0.0002008,"INCLINATION":87.9033,"RA_OF_ASC_NODE":5.0566,"ARG_OF_PERICENTER":99.8263,"MEAN_ANOMALY":260.3093,"EPHEMERIS_TYPE":0,"CLASSIFICATION_TYPE":"U","NORAD_CAT_ID":48066,"ELEMENT_SET_NO":999,"REV_AT_EPOCH":22397,"BSTAR":-0.0011649,"MEAN_MOTION_DOT":-4.13e-6,"MEAN_MOTION_DDOT":0},{"OBJECT_NAME":"ONEWEB-0170","OBJECT_ID":"2021-025AB","EPOCH":"2025-11-02T10:51:42.374592","MEAN_MOTION":13.13469585,"ECCENTRICITY":0.0002117,"INCLINATION":87.903,"RA_OF_ASC_NODE":5.2887,"ARG_OF_PERICENTER":111.1566,"MEAN_ANOMALY":248.979,"EPHEMERIS_TYPE":0,"CLASSIFICATION_TYPE":"U","NORAD_CAT_ID":48067,"ELEMENT_SET_NO":999,"REV_AT_EPOCH":22378,"BSTAR":0.00043937,"MEAN_MOTION_DOT":1.73e-6,"MEAN_MOTION_DDOT":0},{"OBJECT_NAME":"ONEWEB-0168","OBJECT_ID":"2021-025AC","EPOCH":"2025-11-02T10:29:45.794112","MEAN_MOTION":13.13469716,"ECCENTRICITY":0.0001964,"INCLINATION":87.9033,"RA_OF_ASC_NODE":5.2736,"ARG_OF_PERICENTER":93.4614,"MEAN_ANOMALY":266.6739,"EPHEMERIS_TYPE":0,"CLASSIFICATION_TYPE":"U","NORAD_CAT_ID":48068,"ELEMENT_SET_NO":999,"REV_AT_EPOCH":22379,"BSTAR":-0.00047759,"MEAN_MOTION_DOT":-1.62e-6,"MEAN_MOTION_DDOT":0},{"OBJECT_NAME":"ONEWEB-0173","OBJECT_ID":"2021-025AD","EPOCH":"2025-11-02T10:17:33.442656","MEAN_MOTION":13.1346895,"ECCENTRICITY":0.0002201,"INCLINATION":87.9033,"RA_OF_ASC_NODE":5.283,"ARG_OF_PERICENTER":92.3208,"MEAN_ANOMALY":267.8173,"EPHEMERIS_TYPE":0,"CLASSIFICATION_TYPE":"U","NORAD_CAT_ID":48069,"ELEMENT_SET_NO":999,"REV_AT_EPOCH":22403,"BSTAR":-0.00072172,"MEAN_MOTION_DOT":-2.51e-6,"MEAN_MOTION_DDOT":0}]
